CTC2_L_00485024-12
1 10310U 23032JD  26075.70047454  .00000000  00000+0  00000-0 0  9995
2 10310  55.0000 276.0000 0000000   0.0000  29.5385 13.76872657    17
CTC2_L_00485024-13
1 10311U 24818JR  26075.70047454  .00000000  00000+0  00000-0 0  9999
2 10311  55.0000 276.0000 0000000   0.0000  57.2308 13.76872657    11
CTC2_L_00485025-01
1 10312U 25900AE  26075.70047454  .00000000  00000+0  00000-0 0  9993
2 10312  55.0000 288.0000 0000000   0.0000  88.6154 13.76872657    12
CTC2_L_00485025-02
1 10313U 24303DT  26075.70047454  .00000000  00000+0  00000-0 0  9990
2 10313  55.0000 288.0000 0000000   0.0000 116.3077 13.76872657    16
CTC2_L_00485025-03
1 10314U 22588WV  26075.70047454  .00000000  00000+0  00000-0 0  9994
2 10314  55.0000 288.0000 0000000   0.0000 144.0000 13.76872657    11
CTC2_L_00485025-04
1 10315U 22050UV  26075.70047454  .00000000  00000+0  00000-0 0  9999
2 10315  55.0000 288.0000 0000000   0.0000 171.6923 13.76872657    12
CTC2_L_00485025-05
1 10316U 22851BL  26075.70047454  .00000000  00000+0  00000-0 0  9999
2 10316  55.0000 288.0000 0000000   0.0000 199.3846 13.76872657    14
CTC2_L_00485025-06
1 10317U 22951UA  26075.70047454  .00000000  00000+0  00000-0 0  9991
2 10317  55.0000 288.0000 0000000   0.0000 227.0769 13.76872657    18
CTC2_L_00485025-07
1 10318U 22112OT  26075.70047454  .00000000  00000+0  00000-0 0  9991
2 10318  55.0000 288.0000 0000000   0.0000 254.7692 13.76872657    11
CTC2_L_00485025-08
1 10319U 23233XN  26075.70047454  .00000000  00000+0  00000-0 0  9997
2 10319  55.0000 288.0000 0000000   0.0000 282.4615 13.76872657    15
CTC2_L_00485025-09
1 10320U 26434EH  26075.70047454  .00000000  00000+0  00000-0 0  9995
2 10320  55.0000 288.0000 0000000   0.0000 310.1538 13.76872657    10
CTC2_L_00485025-10
1 10321U 26729IN  26075.70047454  .00000000  00000+0  00000-0 0  9993
2 10321  55.0000 288.0000 0000000   0.0000 337.8462 13.76872657    13
CTC2_L_00485025-11
1 10322U 24996EP  26075.70047454  .00000000  00000+0  00000-0 0  9998
2 10322  55.0000 288.0000 0000000   0.0000   5.5385 13.76872657    17
CTC2_L_00485025-12
1 10323U 22124XN  26075.70047454  .00000000  00000+0  00000-0 0  9990
2 10323  55.0000 288.0000 0000000   0.0000  33.2308 13.76872657    11
CTC2_L_00485025-13
1 10324U 22008GJ  26075.70047454  .00000000  00000+0  00000-0 0  9992
2 10324  55.0000 288.0000 0000000   0.0000  60.9231 13.76872657    14
CTC2_L_00485026-01
1 10325U 22169ZO  26075.70047454  .00000000  00000+0  00000-0 0  9991
2 10325  55.0000 300.0000 0000000   0.0000  92.3077 13.76872657    17
CTC2_L_00485026-02
1 10326U 26662VO  26075.70047454  .00000000  00000+0  00000-0 0  9994
2 10326  55.0000 300.0000 0000000   0.0000 120.0000 13.76872657    13
CTC2_L_00485026-03
1 10327U 26099XE  26075.70047454  .00000000  00000+0  00000-0 0  9999
2 10327  55.0000 300.0000 0000000   0.0000 147.6923 13.76872657    13
CTC2_L_00485026-04
1 10328U 25646PP  26075.70047454  .00000000  00000+0  00000-0 0  9997
2 10328  55.0000 300.0000 0000000   0.0000 175.3846 13.76872657    16
CTC2_L_00485026-05
1 10329U 22093HY  26075.70047454  .00000000  00000+0  00000-0 0  9991
2 10329  55.0000 300.0000 0000000   0.0000 203.0769 13.76872657    10
CTC2_L_00485026-06
1 10330U 23667MJ  26075.70047454  .00000000  00000+0  00000-0 0  9991
2 10330  55.0000 300.0000 0000000   0.0000 230.7692 13.76872657    14
CTC2_L_00485026-07
1 10331U 22189H   26075.70047454  .00000000  00000+0  00000-0 0  9990
2 10331  55.0000 300.0000 0000000   0.0000 258.4615 13.76872657    17
CTC2_L_00485026-08
1 10332U 26179FP  26075.70047454  .00000000  00000+0  00000-0 0  9994
2 10332  55.0000 300.0000 0000000   0.0000 286.1538 13.76872657    10
CTC2_L_00485026-09
1 10333U 23407VE  26075.70047454  .00000000  00000+0  00000-0 0  9996
2 10333  55.0000 300.0000 0000000   0.0000 313.8462 13.76872657    15
CTC2_L_00485026-10
1 10334U 24065TL  26075.70047454  .00000000  00000+0  00000-0 0  9998
2 10334  55.0000 300.0000 0000000   0.0000 341.5385 13.76872657    18
CTC2_L_00485026-11
1 10335U 22645OA  26075.70047454  .00000000  00000+0  00000-0 0  9991
2 10335  55.0000 300.0000 0000000   0.0000   9.2308 13.76872657    12
CTC2_L_00485026-12
1 10336U 23491UO  26075.70047454  .00000000  00000+0  00000-0 0  9992
2 10336  55.0000 300.0000 0000000   0.0000  36.9231 13.76872657    15
CTC2_L_00485026-13
1 10337U 24525TK  26075.70047454  .00000000  00000+0  00000-0 0  9992
2 10337  55.0000 300.0000 0000000   0.0000  64.6154 13.76872657    18
CTC2_L_00485027-01
1 10338U 24818LY  26075.70047454  .00000000  00000+0  00000-0 0  9998
2 10338  55.0000 312.0000 0000000   0.0000  96.0000 13.76872657    11
CTC2_L_00485027-02
1 10339U 26312U   26075.70047454  .00000000  00000+0  00000-0 0  9990
2 10339  55.0000 312.0000 0000000   0.0000 123.6923 13.76872657    13
CTC2_L_00485027-03
1 10340U 26945NE  26075.70047454  .00000000  00000+0  00000-0 0  9994
2 10340  55.0000 312.0000 0000000   0.0000 151.3846 13.76872657    17
CTC2_L_00485027-04
1 10341U 22825HG  26075.70047454  .00000000  00000+0  00000-0 0  9998
2 10341  55.0000 312.0000 0000000   0.0000 179.0769 13.76872657    19
CTC2_L_00485027-05
1 10342U 26801IU  26075.70047454  .00000000  00000+0  00000-0 0  9997
2 10342  55.0000 312.0000 0000000   0.0000 206.7692 13.76872657    13
CTC2_L_00485027-06
1 10343U 22596PP  26075.70047454  .00000000  00000+0  00000-0 0  9995
2 10343  55.0000 312.0000 0000000   0.0000 234.4615 13.76872657    17
CTC2_L_00485027-07
1 10344U 22117AI  26075.70047454  .00000000  00000+0  00000-0 0  9995
2 10344  55.0000 312.0000 0000000   0.0000 262.1538 13.76872657    10
CTC2_L_00485027-08
1 10345U 26284KM  26075.70047454  .00000000  00000+0  00000-0 0  9995
2 10345  55.0000 312.0000 0000000   0.0000 289.8462 13.76872657    13
CTC2_L_00485027-09
1 10346U 25641TW  26075.70047454  .00000000  00000+0  00000-0 0  9992
2 10346  55.0000 312.0000 0000000   0.0000 317.5385 13.76872657    17
CTC2_L_00485027-10
1 10347U 25510NR  26075.70047454  .00000000  00000+0  00000-0 0  9998
2 10347  55.0000 312.0000 0000000   0.0000 345.2308 13.76872657    11
CTC2_L_00485027-11
1 10348U 23331HN  26075.70047454  .00000000  00000+0  00000-0 0  9998
2 10348  55.0000 312.0000 0000000   0.0000  12.9231 13.76872657    15
CTC2_L_00485027-12
1 10349U 22475OF  26075.70047454  .00000000  00000+0  00000-0 0  9997
2 10349  55.0000 312.0000 0000000   0.0000  40.6154 13.76872657    18
CTC2_L_00485027-13
1 10350U 22661PO  26075.70047454  .00000000  00000+0  00000-0 0  9996
2 10350  55.0000 312.0000 0000000   0.0000  68.3077 13.76872657    11
CTC2_L_00485028-01
1 10351U 24849FE  26075.70047454  .00000000  00000+0  00000-0 0  9997
2 10351  55.0000 324.0000 0000000   0.0000  99.6923 13.76872657    12
CTC2_L_00485028-02
1 10352U 23064HO  26075.70047454  .00000000  00000+0  00000-0 0  9996
2 10352  55.0000 324.0000 0000000   0.0000 127.3846 13.76872657    16
CTC2_L_00485028-03
1 10353U 26206K   26075.70047454  .00000000  00000+0  00000-0 0  9998
2 10353  55.0000 324.0000 0000000   0.0000 155.0769 13.76872657    19
CTC2_L_00485028-04
1 10354U 22514FB  26075.70047454  .00000000  00000+0  00000-0 0  9997
2 10354  55.0000 324.0000 0000000   0.0000 182.7692 13.76872657    12
CTC2_L_00485028-05
1 10355U 25498XW  26075.70047454  .00000000  00000+0  00000-0 0  9992
2 10355  55.0000 324.0000 0000000   0.0000 210.4615 13.76872657    17
CTC2_L_00485028-06
1 10356U 26035NH  26075.70047454  .00000000  00000+0  00000-0 0  9991
2 10356  55.0000 324.0000 0000000   0.0000 238.1538 13.76872657    19
CTC2_L_00485028-07
1 10357U 25504CB  26075.70047454  .00000000  00000+0  00000-0 0  9992
2 10357  55.0000 324.0000 0000000   0.0000 265.8462 13.76872657    13
CTC2_L_00485028-08
1 10358U 25011KG  26075.70047454  .00000000  00000+0  00000-0 0  9996
2 10358  55.0000 324.0000 0000000   0.0000 293.5385 13.76872657    16
CTC2_L_00485028-09
1 10359U 22516XY  26075.70047454  .00000000  00000+0  00000-0 0  9994
2 10359  55.0000 324.0000 0000000   0.0000 321.2308 13.76872657    11
CTC2_L_00485028-10
1 10360U 24649NZ  26075.70047454  .00000000  00000+0  00000-0 0  9995
2 10360  55.0000 324.0000 0000000   0.0000 348.9231 13.76872657    14
CTC2_L_00485028-11
1 10361U 24542MI  26075.70047454  .00000000  00000+0  00000-0 0  9998
2 10361  55.0000 324.0000 0000000   0.0000  16.6154 13.76872657    18
CTC2_L_00485028-12
1 10362U 22292IE  26075.70047454  .00000000  00000+0  00000-0 0  9999
2 10362  55.0000 324.0000 0000000   0.0000  44.3077 13.76872657    11
CTC2_L_00485028-13
1 10363U 25291ZZ  26075.70047454  .00000000  00000+0  00000-0 0  9992
2 10363  55.0000 324.0000 0000000   0.0000  72.0000 13.76872657    16
CTC2_L_00485029-01
1 10364U 26410IT  26075.70047454  .00000000  00000+0  00000-0 0  9997
2 10364  55.0000 336.0000 0000000   0.0000 103.3846 13.76872657    16
CTC2_L_00485029-02
1 10365U 22640AI  26075.70047454  .00000000  00000+0  00000-0 0  9999
2 10365  55.0000 336.0000 0000000   0.0000 131.0769 13.76872657    19
CTC2_L_00485029-03
1 10366U 22006VZ  26075.70047454  .00000000  00000+0  00000-0 0  9996
2 10366  55.0000 336.0000 0000000   0.0000 158.7692 13.76872657    11
CTC2_L_00485029-04
1 10367U 26950AA  26075.70047454  .00000000  00000+0  00000-0 0  9999
2 10367  55.0000 336.0000 0000000   0.0000 186.4615 13.76872657    15
CTC2_L_00485029-05
1 10368U 25538PX  26075.70047454  .00000000  00000+0  00000-0 0  9991
2 10368  55.0000 336.0000 0000000   0.0000 214.1538 13.76872657    19
CTC2_L_00485029-06
1 10369U 24474QF  26075.70047454  .00000000  00000+0  00000-0 0  9990
2 10369  55.0000 336.0000 0000000   0.0000 241.8462 13.76872657    13
CTC2_L_00485029-07
1 10370U 25359JA  26075.70047454  .00000000  00000+0  00000-0 0  9995
2 10370  55.0000 336.0000 0000000   0.0000 269.5385 13.76872657    16
CTC2_L_00485029-08
1 10371U 24401UW  26075.70047454  .00000000  00000+0  00000-0 0  9993
2 10371  55.0000 336.0000 0000000   0.0000 297.2308 13.76872657    10
